CCSDS_OCM_VERS = 3.0
CREATION_DATE = 2022-11-06T09:23:57
ORIGINATOR = JAXA
META_START
TIME_SYSTEM = UTC
EPOCH_TZERO = 2022-12-18T14:28:15.1172
META_STOP
TRAJ_START
CENTER_NAME = EARTH
TRAJ_REF_FRAME = ITRF2000
TRAJ_TYPE = CARTPV
   0.0  2854.5 -2916.2 -5360.7 5.90 4.86 0.52 0.0037 -0.0038 -0.0070
 120.0  5478.6   434.3 -3862.5 2.50 5.87 4.29 0.0072  0.0006 -0.0051
 240.0  4146.0 -1655.8 -5038.3 4.80 5.58 2.16 0.0054 -0.0022 -0.0066
86400.0  -1553.4 -4848.7 -4406.5 6.73 1.01 -3.53 -0.002 -0.0063 -0.0058
TRAJ_STOP
